[{"OBJECT_NAME":"OBJECT BE","OBJECT_ID":"2024-199BE","EPOCH":"2026-03-09T22:35:11.240448","MEAN_MOTION":15.34583634,"ECCENTRICITY":0.00126202,"INCLINATION":97.3163,"RA_OF_ASC_NODE":298.7137,"ARG_OF_PERICENTER":307.7021,"MEAN_ANOMALY":52.3078,"EPHEMERIS_TYPE":0,"CLASSIFICATION_TYPE":"U","NORAD_CAT_ID":61787,"ELEMENT_SET_NO":999,"REV_AT_EPOCH":12186,"BSTAR":0.00035348262,"MEAN_MOTION_DOT":0.00011799,"MEAN_MOTION_DDOT":0},{"OBJECT_NAME":"STARLINK-36088","OBJECT_ID":"2025-286S","EPOCH":"2026-03-09T02:05:04.348032","MEAN_MOTION":15.30189307,"ECCENTRICITY":0.00011706,"INCLINATION":53.1617,"RA_OF_ASC_NODE":1.3021,"ARG_OF_PERICENTER":59.9837,"MEAN_ANOMALY":300.128,"EPHEMERIS_TYPE":0,"CLASSIFICATION_TYPE":"U","NORAD_CAT_ID":66941,"ELEMENT_SET_NO":999,"REV_AT_EPOCH":1532,"BSTAR":0.00075227699,"MEAN_MOTION_DOT":0.0002198,"MEAN_MOTION_DDOT":0}]
